NORAD_CAT_ID,OBJECT_NAME,OBJECT_TYPE,EPOCH,MEAN_MOTION,ECCENTRICITY,INCLINATION,RA_OF_ASC_NODE,ARG_OF_PERICENTER,MEAN_ANOMALY,BSTAR,MEAN_MOTION_DOT,MEAN_MOTION_DDOT,TLE_LINE0,TLE_LINE1,TLE_LINE2,SEMIMAJOR_AXIS,PERIOD,APOGEE,PERIGEE,DECAYED
54807.0,STARLINK-5410,PAYLOAD,2024-03-11 05:46:08,15.08841789,0.0001597,53.218,58.8846,105.1721,254.9447,3.854e-05,3.25e-06,0.0,0 STARLINK-5410,1 54807U 22175BB  24071.24037354  .00000325  00000-0  38540-4 0  9997,2 54807  53.2180  58.8846 0001597 105.1721 254.9447 15.08841789 68003,6917.875,95.437,540.845,538.635,0.0
54807.0,STARLINK-5410,PAYLOAD,2024-03-12 04:01:32,15.08838388,0.00017,53.2185,54.721,106.7508,253.3671,-3.9805e-05,-9.21e-06,0.0,0 STARLINK-5410,1 54807U 22175BB  24072.16773822 -.00000921  00000-0 -39805-4 0  9995,2 54807  53.2185  54.7210 0001700 106.7508 253.3671 15.08838388 68142,6917.885,95.438,540.926,538.574,0.0
54807.0,STARLINK-5410,PAYLOAD,2024-03-12 15:09:14,15.08839685,0.0001642,53.2192,52.6416,99.0866,261.0312,-4.1854e-05,-9.54e-06,0.0,0 STARLINK-5410,1 54807U 22175BB  24072.63141865 -.00000954  00000-0 -41854-4 0  9996,2 54807  53.2192  52.6416 0001642  99.0866 261.0312 15.08839685 70378,6917.881,95.438,540.882,538.61,0.0
54807.0,STARLINK-5410,PAYLOAD,2024-03-13 05:27:42,15.08840498,0.0001454,53.2188,49.9653,92.306,267.8098,0.00010855,1.44e-05,0.0,0 STARLINK-5410,1 54807U 22175BB  24073.22757573  .00001440  00000-0  10855-3 0  9996,2 54807  53.2188  49.9653 0001454  92.3060 267.8098 15.08840498 68307,6917.879,95.438,540.75,538.738,0.0
54807.0,STARLINK-5410,PAYLOAD,2024-03-13 15:00:01,15.08839296,0.0001323,53.2178,48.1796,75.6884,284.4255,0.00012106,1.639e-05,0.0,0 STARLINK-5410,1 54807U 22175BB  24073.62501739  .00001639  00000-0  12106-3 0  9992,2 54807  53.2178  48.1796 0001323  75.6884 284.4255 15.08839296 70529,6917.883,95.438,540.663,538.832,0.0
54807.0,STARLINK-5410,PAYLOAD,2024-03-14 05:18:30,15.0883566,0.0001438,53.2183,45.5068,90.767,269.3487,7.2492e-05,8.66e-06,0.0,0 STARLINK-5410,1 54807U 22175BB  24074.22118367  .00000866  00000-0  72492-4 0  9996,2 54807  53.2183  45.5068 0001438  90.7670 269.3487 15.08835660 68455,6917.894,95.438,540.753,538.764,0.0
54807.0,STARLINK-5410,PAYLOAD,2024-03-14 21:12:22,15.08832662,0.0001309,53.2174,42.5317,80.2571,279.8569,5.9112e-05,6.53e-06,0.0,0 STARLINK-5410,1 54807U 22175BB  24074.88358842  .00000653  00000-0  59112-4 0  9990,2 54807  53.2174  42.5317 0001309  80.2571 279.8569 15.08832662 70718,6917.903,95.438,540.673,538.862,0.0
54807.0,STARLINK-5410,PAYLOAD,2024-03-15 06:44:39,15.08846609,0.0001367,53.218,40.7496,91.9012,268.2137,8.749e-05,1.105e-05,0.0,0 STARLINK-5410,1 54807U 22175BB  24075.28101851  .00001105  00000-0  87490-4 0  9994,2 54807  53.2180  40.7496 0001367  91.9012 268.2137 15.08846609 68611,6917.86,95.437,540.671,538.78,0.0
54807.0,STARLINK-5410,PAYLOAD,2024-03-16 05:00:04,15.08843054,0.0001426,53.2181,36.5873,90.7895,269.3261,0.00011531,1.548e-05,0.0,0 STARLINK-5410,1 54807U 22175BB  24076.20838026  .00001548  00000-0  11531-3 0  9991,2 54807  53.2181  36.5873 0001426  90.7895 269.3261 15.08843054 68752,6917.871,95.437,540.723,538.75,0.0
54807.0,STARLINK-5410,PAYLOAD,2024-03-16 20:53:55,15.08839321,0.0001479,53.2172,33.6148,80.7916,279.3243,5.1093e-05,5.25e-06,0.0,0 STARLINK-5410,1 54807U 22175BB  24076.87078528  .00000525  00000-0  51093-4 0  9999,2 54807  53.2172  33.6148 0001479  80.7916 279.3243 15.08839321 68850,6917.882,95.438,540.771,538.724,0.0
54807.0,STARLINK-5410,PAYLOAD,2024-03-17 03:15:28,15.08815922,0.0001616,53.2187,32.425,83.585,276.5326,0.00036843,5.577e-05,0.0,0 STARLINK-5410,1 54807U 22175BB  24077.13575229  .00005577  00000-0  36843-3 0  9996,2 54807  53.2187  32.4250 0001616  83.5850 276.5326 15.08815922 68894,6917.954,95.439,540.937,538.701,0.0
54807.0,STARLINK-5410,PAYLOAD,2024-03-17 20:44:42,15.08846398,0.0001407,53.2181,29.1523,103.9099,256.205,3.9636e-05,3.43e-06,0.0,0 STARLINK-5410,1 54807U 22175BB  24077.86437873  .00000343  00000-0  39636-4 0  9998,2 54807  53.2181  29.1523 0001407 103.9099 256.2050 15.08846398 69008,6917.861,95.437,540.699,538.752,0.0
54807.0,STARLINK-5410,PAYLOAD,2024-03-18 06:17:00,15.08853697,0.0001456,53.2181,27.3667,108.1735,251.9416,0.00011721,1.579e-05,0.0,0 STARLINK-5410,1 54807U 22175BB  24078.26181027  .00001579  00000-0  11721-3 0  9996,2 54807  53.2181  27.3667 0001456 108.1735 251.9416 15.08853697 69069,6917.839,95.437,540.711,538.696,0.0
54807.0,STARLINK-5410,PAYLOAD,2024-03-19 02:57:01,15.08847832,0.0001397,53.2186,23.4932,132.4499,227.6611,-2.2279e-05,-6.43e-06,0.0,0 STARLINK-5410,1 54807U 22175BB  24079.12293525 -.00000643  00000-0 -22279-4 0  9993,2 54807  53.2186  23.4932 0001397 132.4499 227.6611 15.08847832 69192,6917.856,95.437,540.688,538.755,0.0
54807.0,STARLINK-5410,PAYLOAD,2024-03-19 06:07:47,15.08849396,0.000132,53.2186,22.9022,116.6947,243.4181,3.9988e-05,3.49e-06,0.0,0 STARLINK-5410,1 54807U 22175BB  24079.25541481  .00000349  00000-0  39988-4 0  9990,2 54807  53.2186  22.9022 0001320 116.6947 243.4181 15.08849396 71372,6917.852,95.437,540.63,538.804,0.0
54807.0,STARLINK-5410,PAYLOAD,2024-03-20 01:12:28,15.08816791,0.0001383,53.2192,19.3356,117.9913,242.1219,-0.00022444,-3.856e-05,0.0,0 STARLINK-5410,1 54807U 22175BB  24080.05033106 -.00003856  00000-0 -22444-3 0  9996,2 54807  53.2192  19.3356 0001383 117.9913 242.1219 15.08816791 69339,6917.951,95.439,540.773,538.86,0.0
54807.0,STARLINK-5410,PAYLOAD,2024-03-20 05:58:38,15.08817509,0.0001153,53.2189,18.4427,104.2939,255.8181,-0.00020409,-3.532e-05,0.0,0 STARLINK-5410,1 54807U 22175BB  24080.24905358 -.00003532  00000-0 -20409-3 0  9994,2 54807  53.2189  18.4427 0001153 104.2939 255.8181 15.08817509 71527,6917.949,95.439,540.612,539.016,0.0
54807.0,STARLINK-5410,PAYLOAD,2024-03-21 02:38:35,15.08863331,9.95e-05,53.2181,14.5775,89.6501,270.4605,0.00026171,3.882e-05,0.0,0 STARLINK-5410,1 54807U 22175BB  24081.11013659  .00003882  00000-0  26171-3 0  9993,2 54807  53.2181  14.5775 0000995  89.6501 270.4605 15.08863331 69497,6917.809,95.436,540.362,538.986,0.0
54807.0,STARLINK-5410,PAYLOAD,2024-03-21 12:10:54,15.08860415,8.99e-05,53.2169,12.7923,83.674,276.4355,0.00025885,3.836e-05,0.0,0 STARLINK-5410,1 54807U 22175BB  24081.50757580  .00003836  00000-0  25885-3 0  9994,2 54807  53.2169  12.7923 0000899  83.6740 276.4355 15.08860415 69555,6917.818,95.436,540.305,539.061,0.0
54807.0,STARLINK-5410,PAYLOAD,2024-03-22 04:04:45,15.08866583,7.8e-05,53.2193,9.8244,93.8029,266.3053,0.00039465,6.003e-05,0.0,0 STARLINK-5410,1 54807U 22175BB  24082.16997280  .00006003  00000-0  39465-3 0  9998,2 54807  53.2193   9.8244 0000780  93.8029 266.3053 15.08866583 71814,6917.799,95.436,540.204,539.125,0.0
54807.0,STARLINK-5410,PAYLOAD,2024-03-23 02:20:09,15.08865108,9.54e-05,53.2183,5.6574,91.3797,268.7304,-3.7503e-05,-8.85e-06,0.0,0 STARLINK-5410,1 54807U 22175BB  24083.09733547 -.00000885  00000-0 -37503-4 0  9991,2 54807  53.2183   5.6574 0000954  91.3797 268.7304 15.08865108 69792,6917.804,95.436,540.329,539.009,0.0
54807.0,STARLINK-5410,PAYLOAD,2024-03-23 18:14:02,15.08840609,0.0001429,53.2192,2.6881,89.3195,270.7961,-7.8684e-05,-1.54e-05,0.0,0 STARLINK-5410,1 54807U 22175BB  24083.75975062 -.00001540  00000-0 -78684-4 0  9998,2 54807  53.2192   2.6881 0001429  89.3195 270.7961 15.08840609 69899,6917.879,95.438,540.732,538.755,0.0
54807.0,STARLINK-5410,PAYLOAD,2024-03-24 02:10:56,15.08857696,0.0001279,53.219,1.196,95.1169,264.9969,-3.7027e-05,-8.77e-06,0.0,0 STARLINK-5410,1 54807U 22175BB  24084.09093279 -.00000877  00000-0 -37027-4 0  9995,2 54807  53.2190   1.1960 0001279  95.1169 264.9969 15.08857696 69941,6917.826,95.436,540.576,538.807,0.0
54807.0,STARLINK-5410,PAYLOAD,2024-03-24 11:43:16,15.08841616,0.0001436,53.2198,359.4143,88.2179,271.8977,-0.00015116,-2.693e-05,0.0,0 STARLINK-5410,1 54807U 22175BB  24084.48838170 -.00002693  00000-0 -15116-3 0  9997,2 54807  53.2198 359.4143 0001436  88.2179 271.8977 15.08841616 70000,6917.875,95.437,540.734,538.747,0.0
54807.0,STARLINK-5410,PAYLOAD,2024-03-24 18:04:50,15.08809856,9.72e-05,53.2189,358.2264,82.0956,278.0146,-0.00042467,-7.034e-05,0.0,0 STARLINK-5410,1 54807U 22175BB  24084.75335969 -.00007034  00000-0 -42467-3 0  9998,2 54807  53.2189 358.2264 0000972  82.0956 278.0146 15.08809856 70041,6917.973,95.439,540.51,539.165,0.0
54807.0,STARLINK-5410,PAYLOAD,2024-03-24 22:50:58,15.08846662,0.0001799,53.2194,357.3339,114.9337,245.1843,0.00015061,2.11e-05,0.0,0 STARLINK-5410,1 54807U 22175BB  24084.95206349  .00002110  00000-0  15061-3 0  9997,2 54807  53.2194 357.3339 0001799 114.9337 245.1843 15.08846662 72234,6917.86,95.437,540.97,538.481,0.0
54807.0,STARLINK-5410,PAYLOAD,2024-03-25 00:26:21,15.08848741,0.0001336,53.2189,357.0371,84.2531,275.8614,0.00020167,2.924e-05,0.0,0 STARLINK-5410,1 54807U 22175BB  24085.01830411  .00002924  00000-0  20167-3 0  9994,2 54807  53.2189 357.0371 0001336  84.2531 275.8614 15.08848741 70080,6917.854,95.437,540.643,538.794,0.0
54807.0,STARLINK-5410,PAYLOAD,2024-03-25 11:34:04,15.08835966,0.0001588,53.2198,354.9542,88.8776,271.2398,6.7756e-05,7.9e-06,0.0,0 STARLINK-5410,1 54807U 22175BB  24085.48199279  .00000790  00000-0  67756-4 0  9990,2 54807  53.2198 354.9542 0001588  88.8776 271.2398 15.08835966 70158,6917.893,95.438,540.856,538.659,0.0
54807.0,STARLINK-5410,PAYLOAD,2024-03-25 21:06:23,15.08823567,0.0001528,53.2181,353.1699,113.6463,246.4689,-5.0381e-05,-1.089e-05,0.0,0 STARLINK-5410,1 54807U 22175BB  24085.87944364 -.00001089  00000-0 -50381-4 0  9996,2 54807  53.2181 353.1699 0001528 113.6463 246.4689 15.08823567 70216,6917.931,95.439,540.853,538.739,0.0
54807.0,STARLINK-5410,PAYLOAD,2024-03-25 22:41:47,15.08824719,0.0001572,53.2187,352.8727,114.4166,245.699,-3.1794e-05,-7.94e-06,0.0,0 STARLINK-5410,1 54807U 22175BB  24085.94568393 -.00000794  00000-0 -31794-4 0  9997,2 54807  53.2187 352.8727 0001572 114.4166 245.6990 15.08824719 72384,6917.927,95.439,540.88,538.705,0.0
